STARLINK-30785          
1 58191U 23167S   26068.55719495  .00000823  00000+0  40356-4 0  9994
2 58191  42.9994 144.2469 0001287 264.4263  95.6441 15.26746987130961
HERMES-2                
1 63243U 25052AK  26068.92847372  .00009456  00000+0  34839-3 0  9999
2 63243  97.4004 324.4926 0006340  99.4160 260.7796 15.28021069 54859
